{
  "links" : {
    "next" : "https://api.nasa.gov/neo/rest/v1/feed?start_date=2007-05-23&end_date=2007-05-23&detailed=true&api_key=t0TVs3DtDT2H8Oy2Zy8m2eVrNsAVKAexjcZXUckd",
    "prev" : "https://api.nasa.gov/neo/rest/v1/feed?start_date=2007-05-21&end_date=2007-05-21&detailed=true&api_key=t0TVs3DtDT2H8Oy2Zy8m2eVrNsAVKAexjcZXUckd",
    "self" : "https://api.nasa.gov/neo/rest/v1/feed?start_date=2007-05-22&end_date=2007-05-22&detailed=true&api_key=t0TVs3DtDT2H8Oy2Zy8m2eVrNsAVKAexjcZXUckd"
  },
  "element_count" : 5,
  "near_earth_objects" : {
    "2007-05-22" : [ {
      "links" : {
        "self" : "https://api.nasa.gov/neo/rest/v1/neo/2378358?api_key=t0TVs3DtDT2H8Oy2Zy8m2eVrNsAVKAexjcZXUckd"
      },
      "neo_reference_id" : "2378358",
      "name" : "378358 (2007 LD)",
      "nasa_jpl_url" : "http://ssd.jpl.nasa.gov/sbdb.cgi?sstr=2378358",
      "absolute_magnitude_h" : 19.3,
      "estimated_diameter" : {
        "kilometers" : {
          "estimated_diameter_min" : 0.3669061375,
          "estimated_diameter_max" : 0.8204270649
        },
        "meters" : {
          "estimated_diameter_min" : 366.9061375314,
          "estimated_diameter_max" : 820.4270648822
        },
        "miles" : {
          "estimated_diameter_min" : 0.2279848336,
          "estimated_diameter_max" : 0.5097895857
        },
        "feet" : {
          "estimated_diameter_min" : 1203.7603322587,
          "estimated_diameter_max" : 2691.6899315481
        }
      },
      "is_potentially_hazardous_asteroid" : true,
      "close_approach_data" : [ {
        "close_approach_date" : "2007-05-22",
        "epoch_date_close_approach" : 1179817200000,
        "relative_velocity" : {
          "kilometers_per_second" : "18.5154003715",
          "kilometers_per_hour" : "66655.4413375051",
          "miles_per_hour" : "41417.0990910737"
        },
        "miss_distance" : {
          "astronomical" : "0.2975055046",
          "lunar" : "115.729637146",
          "kilometers" : "44506188",
          "miles" : "27654864"
        },
        "orbiting_body" : "Earth"
      } ],
      "orbital_data" : {
        "orbit_id" : "38",
        "orbit_determination_date" : "2017-04-06 09:22:21",
        "orbit_uncertainty" : "0",
        "minimum_orbit_intersection" : ".037944",
        "jupiter_tisserand_invariant" : "4.006",
        "epoch_osculation" : "2458000.5",
        "eccentricity" : ".4392821301805319",
        "semi_major_axis" : "1.726385605654085",
        "inclination" : "16.49497716465611",
        "ascending_node_longitude" : "226.2489569734699",
        "orbital_period" : "828.5240821376849",
        "perihelion_distance" : ".9680152592893509",
        "perihelion_argument" : "316.8843984461145",
        "aphelion_distance" : "2.484755952018819",
        "perihelion_time" : "2458350.618921145536",
        "mean_anomaly" : "207.870672283673",
        "mean_motion" : ".4345075873608401",
        "equinox" : "J2000"
      }
    }, {
      "links" : {
        "self" : "https://api.nasa.gov/neo/rest/v1/neo/3170221?api_key=t0TVs3DtDT2H8Oy2Zy8m2eVrNsAVKAexjcZXUckd"
      },
      "neo_reference_id" : "3170221",
      "name" : "(2003 YN107)",
      "nasa_jpl_url" : "http://ssd.jpl.nasa.gov/sbdb.cgi?sstr=3170221",
      "absolute_magnitude_h" : 26.5,
      "estimated_diameter" : {
        "kilometers" : {
          "estimated_diameter_min" : 0.0133215567,
          "estimated_diameter_max" : 0.0297879063
        },
        "meters" : {
          "estimated_diameter_min" : 13.3215566698,
          "estimated_diameter_max" : 29.7879062798
        },
        "miles" : {
          "estimated_diameter_min" : 0.008277629,
          "estimated_diameter_max" : 0.0185093411
        },
        "feet" : {
          "estimated_diameter_min" : 43.7058959846,
          "estimated_diameter_max" : 97.7293544391
        }
      },
      "is_potentially_hazardous_asteroid" : false,
      "close_approach_data" : [ {
        "close_approach_date" : "2007-05-22",
        "epoch_date_close_approach" : 1179817200000,
        "relative_velocity" : {
          "kilometers_per_second" : "3.0919829767",
          "kilometers_per_hour" : "11131.1387162509",
          "miles_per_hour" : "6916.4567206616"
        },
        "miss_distance" : {
          "astronomical" : "0.0616710812",
          "lunar" : "23.9900512695",
          "kilometers" : "9225863",
          "miles" : "5732685.5"
        },
        "orbiting_body" : "Earth"
      } ],
      "orbital_data" : {
        "orbit_id" : "17",
        "orbit_determination_date" : "2017-04-06 09:13:21",
        "orbit_uncertainty" : "1",
        "minimum_orbit_intersection" : ".00576149",
        "jupiter_tisserand_invariant" : "6.132",
        "epoch_osculation" : "2458000.5",
        "eccentricity" : ".01394849751423765",
        "semi_major_axis" : ".988667858326567",
        "inclination" : "4.320908199813253",
        "ascending_node_longitude" : "264.4056022167966",
        "orbital_period" : "359.0658068186285",
        "perihelion_distance" : ".9748774271622922",
        "perihelion_argument" : "87.81644303895897",
        "aphelion_distance" : "1.002458289490842",
        "perihelion_time" : "2457942.407117798018",
        "mean_anomaly" : "58.24402434197092",
        "mean_motion" : "1.00260173250594",
        "equinox" : "J2000"
      }
    }, {
      "links" : {
        "self" : "https://api.nasa.gov/neo/rest/v1/neo/3412748?api_key=t0TVs3DtDT2H8Oy2Zy8m2eVrNsAVKAexjcZXUckd"
      },
      "neo_reference_id" : "3412748",
      "name" : "(2008 KS)",
      "nasa_jpl_url" : "http://ssd.jpl.nasa.gov/sbdb.cgi?sstr=3412748",
      "absolute_magnitude_h" : 24.7,
      "estimated_diameter" : {
        "kilometers" : {
          "estimated_diameter_min" : 0.0305179233,
          "estimated_diameter_max" : 0.0682401509
        },
        "meters" : {
          "estimated_diameter_min" : 30.5179232594,
          "estimated_diameter_max" : 68.2401509401
        },
        "miles" : {
          "estimated_diameter_min" : 0.0189629525,
          "estimated_diameter_max" : 0.0424024508
        },
        "feet" : {
          "estimated_diameter_min" : 100.1244233463,
          "estimated_diameter_max" : 223.8850168104
        }
      },
      "is_potentially_hazardous_asteroid" : false,
      "close_approach_data" : [ {
        "close_approach_date" : "2007-05-22",
        "epoch_date_close_approach" : 1179817200000,
        "relative_velocity" : {
          "kilometers_per_second" : "12.9373370272",
          "kilometers_per_hour" : "46574.4132978034",
          "miles_per_hour" : "28939.5291960712"
        },
        "miss_distance" : {
          "astronomical" : "0.2237635246",
          "lunar" : "87.0440139771",
          "kilometers" : "33474548",
          "miles" : "20800120"
        },
        "orbiting_body" : "Earth"
      } ],
      "orbital_data" : {
        "orbit_id" : "7",
        "orbit_determination_date" : "2017-04-06 09:03:23",
        "orbit_uncertainty" : "8",
        "minimum_orbit_intersection" : ".0888196",
        "jupiter_tisserand_invariant" : "6.112",
        "epoch_osculation" : "2454616.5",
        "eccentricity" : ".1568922134767488",
        "semi_major_axis" : ".9743543311064372",
        "inclination" : "25.45421588845765",
        "ascending_node_longitude" : "246.1053750791025",
        "orbital_period" : "351.2964870111826",
        "perihelion_distance" : ".8214857233884914",
        "perihelion_argument" : "152.7814648359599",
        "aphelion_distance" : "1.127222938824383",
        "perihelion_time" : "2454753.758227841080",
        "mean_anomaly" : "219.3411438776618",
        "mean_motion" : "1.024775405706065",
        "equinox" : "J2000"
      }
    } ]
  }
}